*******************************************************************************
 Revised: April 12, 2021       Solar System Barycenter                        0

 Dynamical point 
 ---------------
 The center of mass for the solar system. See object 10 for Sun ephemeris.
*******************************************************************************


*******************************************************************************
Ephemeris / WWW_USER Wed Feb  2 11:06:23 2022 Pasadena, USA      / Horizons    
*******************************************************************************
Target body name: Solar System Barycenter (0)     {source: DE441}
Center body name: Sun (10)                        {source: DE441}
Center-site name: BODYCENTRIC
*******************************************************************************
Start time      : A.D. 2032-Jan-01 00:09:00.0000 UT      
Stop  time      : A.D. 2032-Dec-31 23:59:00.0000 UT      
Step-size       : 40 minutes
*******************************************************************************
Target pole/equ : MARSIAU                         {East-longitude positive}
Target radii    : 696000.0 x 696000.0 x 696000.0 k{Equator, meridian, pole}    
Center geodetic : 0.00000000,0.00000000,0.0000000 {E-lon(deg),Lat(deg),Alt(km)}
Center cylindric: 0.00000000,0.00000000,0.0000000 {E-lon(deg),Dxy(km),Dz(km)}
Center pole/equ : IAU_SUN                         {East-longitude positive}
Center radii    : 696000.0 x 696000.0 x 696000.0 k{Equator, meridian, pole}    
Target primary  : Sun
Vis. interferer : None
Rel. light bend : Sun                             {source: DE441}
Rel. lght bnd GM: 1.3271E+11 km^3/s^2                                          
Atmos refraction: NO (AIRLESS)
RA format       : HMS
Time format     : CAL 
EOP file        : eop.220131.p220426                                           
EOP coverage    : DATA-BASED 1962-JAN-20 TO 2022-JAN-31. PREDICTS-> 2022-APR-25
Units conversion: 1 au= 149597870.700 km, c= 299792.458 km/s, 1 day= 86400.0 s 
Table cut-offs 1: Elevation (-90.0deg=NO ),Airmass     n.a.    , Daylight (NO )
Table cut-offs 2: Solar elongation (  0.0,180.0=NO ),Local Hour Angle( 0.0=NO )
Table cut-offs 3: RA/DEC angular rate (     0.0=NO )                           
*******************************************************************************
 Date__(UT)__HR:MN     R.A._____(ICRF)_____DEC             delta      deldot
****************************************************************************
$$SOE
 2032-Sep-26 10:49     23 48 32.98 -03 08 46.3  0.00415558061381   0.0066089
 2032-Sep-26 11:29     23 48 33.38 -03 08 43.7  0.00415568663925   0.0066088
 2032-Sep-26 12:09     23 48 33.77 -03 08 41.1  0.00415579266341   0.0066087
 2032-Sep-26 12:49     23 48 34.17 -03 08 38.5  0.00415589868627   0.0066086
 2032-Sep-26 13:29     23 48 34.56 -03 08 35.9  0.00415600470784   0.0066085
 2032-Sep-26 14:09     23 48 34.96 -03 08 33.3  0.00415611072813   0.0066085
 2032-Sep-26 14:49     23 48 35.35 -03 08 30.7  0.00415621674711   0.0066084
 2032-Sep-26 15:29     23 48 35.75 -03 08 28.1  0.00415632276481   0.0066083
 2032-Sep-26 16:09     23 48 36.14 -03 08 25.5  0.00415642878120   0.0066082
 2032-Sep-26 16:49     23 48 36.54 -03 08 22.8  0.00415653479631   0.0066081
 2032-Sep-26 17:29     23 48 36.93 -03 08 20.2  0.00415664081011   0.0066081
 2032-Sep-26 18:09     23 48 37.33 -03 08 17.6  0.00415674682262   0.0066080
 2032-Sep-26 18:49     23 48 37.72 -03 08 15.0  0.00415685283383   0.0066079
 2032-Sep-26 19:29     23 48 38.11 -03 08 12.4  0.00415695884374   0.0066078
 2032-Sep-26 20:09     23 48 38.51 -03 08 09.8  0.00415706485235   0.0066077
 2032-Sep-26 20:49     23 48 38.90 -03 08 07.2  0.00415717085966   0.0066077
 2032-Sep-26 21:29     23 48 39.30 -03 08 04.6  0.00415727686566   0.0066076
 2032-Sep-26 22:09     23 48 39.69 -03 08 02.0  0.00415738287036   0.0066075
 2032-Sep-26 22:49     23 48 40.09 -03 07 59.4  0.00415748887376   0.0066074
 2032-Sep-26 23:29     23 48 40.48 -03 07 56.8  0.00415759487585   0.0066073
 2032-Sep-27 00:09     23 48 40.88 -03 07 54.2  0.00415770087664   0.0066072
 2032-Sep-27 00:49     23 48 41.27 -03 07 51.6  0.00415780687611   0.0066072
 2032-Sep-27 01:29     23 48 41.67 -03 07 49.0  0.00415791287428   0.0066071
 2032-Sep-27 02:09     23 48 42.06 -03 07 46.4  0.00415801887114   0.0066070
 2032-Sep-27 02:49     23 48 42.46 -03 07 43.8  0.00415812486669   0.0066069
 2032-Sep-27 03:29     23 48 42.85 -03 07 41.2  0.00415823086093   0.0066068
 2032-Sep-27 04:09     23 48 43.25 -03 07 38.6  0.00415833685386   0.0066068
 2032-Sep-27 04:49     23 48 43.64 -03 07 36.0  0.00415844284547   0.0066067
 2032-Sep-27 05:29     23 48 44.04 -03 07 33.4  0.00415854883577   0.0066066
 2032-Sep-27 06:09     23 48 44.43 -03 07 30.8  0.00415865482476   0.0066065
 2032-Sep-27 06:49     23 48 44.83 -03 07 28.1  0.00415876081243   0.0066064
 2032-Sep-27 07:29     23 48 45.22 -03 07 25.5  0.00415886679878   0.0066063
 2032-Sep-27 08:09     23 48 45.62 -03 07 22.9  0.00415897278381   0.0066063
 2032-Sep-27 08:49     23 48 46.01 -03 07 20.3  0.00415907876753   0.0066062
 2032-Sep-27 09:29     23 48 46.41 -03 07 17.7  0.00415918474992   0.0066061
 2032-Sep-27 10:09     23 48 46.80 -03 07 15.1  0.00415929073100   0.0066060
 2032-Sep-27 10:49     23 48 47.20 -03 07 12.5  0.00415939671075   0.0066059
 2032-Sep-27 11:29     23 48 47.59 -03 07 09.9  0.00415950268918   0.0066059
 2032-Sep-27 12:09     23 48 47.99 -03 07 07.3  0.00415960866629   0.0066058
 2032-Sep-27 12:49     23 48 48.38 -03 07 04.7  0.00415971464207   0.0066057
 2032-Sep-27 13:29     23 48 48.78 -03 07 02.1  0.00415982061653   0.0066056
 2032-Sep-27 14:09     23 48 49.17 -03 06 59.5  0.00415992658966   0.0066055
 2032-Sep-27 14:49     23 48 49.56 -03 06 56.9  0.00416003256146   0.0066054
 2032-Sep-27 15:29     23 48 49.96 -03 06 54.3  0.00416013853194   0.0066054
 2032-Sep-27 16:09     23 48 50.35 -03 06 51.7  0.00416024450108   0.0066053
 2032-Sep-27 16:49     23 48 50.75 -03 06 49.1  0.00416035046890   0.0066052
 2032-Sep-27 17:29     23 48 51.14 -03 06 46.5  0.00416045643538   0.0066051
 2032-Sep-27 18:09     23 48 51.54 -03 06 43.9  0.00416056240054   0.0066050
 2032-Sep-27 18:49     23 48 51.93 -03 06 41.3  0.00416066836436   0.0066049
 2032-Sep-27 19:29     23 48 52.33 -03 06 38.7  0.00416077432684   0.0066049
 2032-Sep-27 20:09     23 48 52.72 -03 06 36.1  0.00416088028799   0.0066048
 2032-Sep-27 20:49     23 48 53.12 -03 06 33.4  0.00416098624781   0.0066047
 2032-Sep-27 21:29     23 48 53.51 -03 06 30.8  0.00416109220628   0.0066046
 2032-Sep-27 22:09     23 48 53.91 -03 06 28.2  0.00416119816342   0.0066045
 2032-Sep-27 22:49     23 48 54.30 -03 06 25.6  0.00416130411923   0.0066044
 2032-Sep-27 23:29     23 48 54.70 -03 06 23.0  0.00416141007369   0.0066044
 2032-Sep-28 00:09     23 48 55.09 -03 06 20.4  0.00416151602681   0.0066043
 2032-Sep-28 00:49     23 48 55.49 -03 06 17.8  0.00416162197859   0.0066042
 2032-Sep-28 01:29     23 48 55.88 -03 06 15.2  0.00416172792902   0.0066041
 2032-Sep-28 02:09     23 48 56.28 -03 06 12.6  0.00416183387812   0.0066040
 2032-Sep-28 02:49     23 48 56.67 -03 06 10.0  0.00416193982587   0.0066039
 2032-Sep-28 03:29     23 48 57.07 -03 06 07.4  0.00416204577227   0.0066039
 2032-Sep-28 04:09     23 48 57.46 -03 06 04.8  0.00416215171733   0.0066038
 2032-Sep-28 04:49     23 48 57.86 -03 06 02.2  0.00416225766104   0.0066037
 2032-Sep-28 05:29     23 48 58.25 -03 05 59.6  0.00416236360340   0.0066036
 2032-Sep-28 06:09     23 48 58.65 -03 05 57.0  0.00416246954441   0.0066035
 2032-Sep-28 06:49     23 48 59.04 -03 05 54.4  0.00416257548408   0.0066034
 2032-Sep-28 07:29     23 48 59.44 -03 05 51.8  0.00416268142239   0.0066034
 2032-Sep-28 08:09     23 48 59.83 -03 05 49.2  0.00416278735935   0.0066033
 2032-Sep-28 08:49     23 49 00.23 -03 05 46.6  0.00416289329495   0.0066032
 2032-Sep-28 09:29     23 49 00.62 -03 05 43.9  0.00416299922921   0.0066031
 2032-Sep-28 10:09     23 49 01.02 -03 05 41.3  0.00416310516211   0.0066030
 2032-Sep-28 10:49     23 49 01.41 -03 05 38.7  0.00416321109365   0.0066029
 2032-Sep-28 11:29     23 49 01.80 -03 05 36.1  0.00416331702383   0.0066028
 2032-Sep-28 12:09     23 49 02.20 -03 05 33.5  0.00416342295266   0.0066028
 2032-Sep-28 12:49     23 49 02.59 -03 05 30.9  0.00416352888013   0.0066027
 2032-Sep-28 13:29     23 49 02.99 -03 05 28.3  0.00416363480624   0.0066026
 2032-Sep-28 14:09     23 49 03.38 -03 05 25.7  0.00416374073099   0.0066025
 2032-Sep-28 14:49     23 49 03.78 -03 05 23.1  0.00416384665438   0.0066024
 2032-Sep-28 15:29     23 49 04.17 -03 05 20.5  0.00416395257640   0.0066023
 2032-Sep-28 16:09     23 49 04.57 -03 05 17.9  0.00416405849706   0.0066023
 2032-Sep-28 16:49     23 49 04.96 -03 05 15.3  0.00416416441636   0.0066022
 2032-Sep-28 17:29     23 49 05.36 -03 05 12.7  0.00416427033429   0.0066021
 2032-Sep-28 18:09     23 49 05.75 -03 05 10.1  0.00416437625086   0.0066020
 2032-Sep-28 18:49     23 49 06.15 -03 05 07.5  0.00416448216606   0.0066019
 2032-Sep-28 19:29     23 49 06.54 -03 05 04.9  0.00416458807989   0.0066018
 2032-Sep-28 20:09     23 49 06.94 -03 05 02.3  0.00416469399235   0.0066017
 2032-Sep-28 20:49     23 49 07.33 -03 04 59.7  0.00416479990345   0.0066017
 2032-Sep-28 21:29     23 49 07.73 -03 04 57.1  0.00416490581317   0.0066016
 2032-Sep-28 22:09     23 49 08.12 -03 04 54.4  0.00416501172152   0.0066015
 2032-Sep-28 22:49     23 49 08.52 -03 04 51.8  0.00416511762849   0.0066014
 2032-Sep-28 23:29     23 49 08.91 -03 04 49.2  0.00416522353410   0.0066013
 2032-Sep-29 00:09     23 49 09.31 -03 04 46.6  0.00416532943833   0.0066012
 2032-Sep-29 00:49     23 49 09.70 -03 04 44.0  0.00416543534118   0.0066011
 2032-Sep-29 01:29     23 49 10.10 -03 04 41.4  0.00416554124266   0.0066011
 2032-Sep-29 02:09     23 49 10.49 -03 04 38.8  0.00416564714276   0.0066010
 2032-Sep-29 02:49     23 49 10.89 -03 04 36.2  0.00416575304148   0.0066009
